[{"OBJECT_NAME":"STARLINK-31397","OBJECT_ID":"2024-074G","EPOCH":"2026-03-09T04:22:26.124384","MEAN_MOTION":15.27512537,"ECCENTRICITY":0.00012485,"INCLINATION":43.0017,"RA_OF_ASC_NODE":346.6585,"ARG_OF_PERICENTER":41.9916,"MEAN_ANOMALY":318.1032,"EPHEMERIS_TYPE":0,"CLASSIFICATION_TYPE":"U","NORAD_CAT_ID":59540,"ELEMENT_SET_NO":999,"REV_AT_EPOCH":10593,"BSTAR":0.00041826768,"MEAN_MOTION_DOT":0.00011242,"MEAN_MOTION_DDOT":0},{"OBJECT_NAME":"FLOCK 4G-3","OBJECT_ID":"2025-009AG","EPOCH":"2026-03-09T19:14:30.392160","MEAN_MOTION":15.2717931,"ECCENTRICITY":0.00013196,"INCLINATION":97.4062,"RA_OF_ASC_NODE":151.4068,"ARG_OF_PERICENTER":293.2042,"MEAN_ANOMALY":66.9058,"EPHEMERIS_TYPE":0,"CLASSIFICATION_TYPE":"U","NORAD_CAT_ID":62639,"ELEMENT_SET_NO":999,"REV_AT_EPOCH":6372,"BSTAR":0.0004338875,"MEAN_MOTION_DOT":0.00011494,"MEAN_MOTION_DDOT":0}]
